{"n":26407,"c":2,"l1":"1 26407U 2000-040 26137.62257807  0.00000041  00000-0  00000-0 0  9997","l2":"2 26407  54.8564 216.3764 0121388 302.3549 232.8406  2.00557372189331","nm":"NAVSTAR 48 (USA 151)"},{"n":27663,"c":2,"l1":"1 27663U 2003-005 26137.29912992  0.00000043  00000-0  00000-0 0  9994","l2":"2 27663  54.8873 216.1962 0147996  53.0145  24.2078  2.00562151170690","nm":"NAVSTAR 51 (USA 166)"},{"n":28190,"c":2,"l1":"1 28190U 2004-009 26137.46271088 -0.00000030  00000-0  00000-0 0  9995","l2":"2 28190  54.8563 276.9279 0114751 171.7221 177.4709  2.00555598162323","nm":"NAVSTAR 54 (USA 177)"},{"n":28474,"c":2,"l1":"1 28474U 2004-045 26137.16458684 -0.00000064  00000-0  00000-0 0  9993","l2":"2 28474  55.1543 326.1453 0169904 315.6024 243.3828  2.00554371157802","nm":"NAVSTAR 56 (USA 180)"},{"n":28874,"c":2,"l1":"1 28874U 2005-038 26137.45178031 -0.00000028  00000-0  00000-0 0  9997","l2":"2 28874  54.9043 274.4173 0127705 295.9631  72.7130  2.00567691151228","nm":"NAVSTAR 57 (USA 183)"},{"n":29486,"c":2,"l1":"1 29486U 2006-042 26137.23067566  0.00000084  00000-0  00000-0 0  9990","l2":"2 29486  54.7060 152.5678 0106165  53.7708  53.2316  2.00571540143772","nm":"NAVSTAR 58 (USA 190)"},{"n":29601,"c":2,"l1":"1 29601U 2006-052 26137.00699953  0.00000046  00000-0  00000-0 0  9994","l2":"2 29601  54.9391 215.2422 0085868  90.5552 270.4999  2.00556386142787","nm":"NAVSTAR 59 (USA 192)"},{"n":32260,"c":2,"l1":"1 32260U 2007-047 26137.81036383 -0.00000018  00000-0  00000-0 0  9995","l2":"2 32260  54.0739  81.3171 0165633  86.8137 275.0441  2.00556665136201","nm":"NAVSTAR 60 (USA 196)"},{"n":32384,"c":2,"l1":"1 32384U 2007-062 26137.87481000 -0.00000028  00000-0  00000-0 0  9996","l2":"2 32384  55.0571 275.3706 0035137 163.6491   9.9039  2.00558117134900","nm":"NAVSTAR 61 (USA 199)"},{"n":32711,"c":2,"l1":"1 32711U 2008-012 26137.22573809  0.00000083  00000-0  00000-0 0  9994","l2":"2 32711  54.4922 151.1616 0210484 247.4279 110.3724  2.00571548133138","nm":"NAVSTAR 62 (USA 201)"},{"n":35752,"c":2,"l1":"1 35752U 2009-043 26137.72285272 -0.00000073  00000-0  00000-0 0  9996","l2":"2 35752  56.1919  28.6484 0053391  82.0019 288.9209  2.00555780122755","nm":"NAVSTAR 64 (USA 206)"},{"n":36585,"c":2,"l1":"1 36585U 2010-022 26137.60907735  0.00000049  00000-0  00000-0 0  9994","l2":"2 36585  54.2733 209.7940 0126408  66.1106 340.3358  2.00560837116987","nm":"NAVSTAR 65 (USA 213)"},{"n":38833,"c":2,"l1":"1 38833U 2012-053 26137.40512145  0.00000074  00000-0  00000-0 0  9991","l2":"2 38833  53.5797 144.8603 0178733  65.3642 296.5167  2.00566950 98820","nm":"NAVSTAR 67 (USA 239)"},{"n":39166,"c":2,"l1":"1 39166U 2013-023 26135.27691817 -0.00000031  00000-0  00000-0 0  9990","l2":"2 39166  54.5310 270.3138 0141800  50.8427 310.3815  2.00563577 95223","nm":"NAVSTAR 68 (USA 242)"},{"n":39533,"c":2,"l1":"1 39533U 2014-008 26137.27246839  0.00000080  00000-0  00000-0 0  9997","l2":"2 39533  53.6488 150.5806 0084108 230.6928 128.5991  2.00557756 89060","nm":"NAVSTAR 69 (USA 248)"},{"n":39741,"c":2,"l1":"1 39741U 2014-026 26137.54793650 -0.00000065  00000-0  00000-0 0  9990","l2":"2 39741  56.5126 332.7102 0038547 326.8811  32.8970  2.00563154 87926","nm":"NAVSTAR 70 (USA 251)"},{"n":40105,"c":2,"l1":"1 40105U 2014-045 26137.14053360 -0.00000001  00000-0  00000-0 0  9990","l2":"2 40105  55.3338  89.7013 0032189 118.6478 241.6385  2.00556251 85452","nm":"NAVSTAR 71 (USA 256)"},{"n":40294,"c":2,"l1":"1 40294U 2014-068 26137.51152079 -0.00000070  00000-0  00000-0 0  9998","l2":"2 40294  56.9673  32.1368 0066138  69.4915 291.2550  2.00574205 84593","nm":"NAVSTAR 72 (USA 258)"},{"n":40534,"c":2,"l1":"1 40534U 2015-013 26137.14909111  0.00000056  00000-0  00000-0 0  9995","l2":"2 40534  53.1707 205.4614 0109029  40.0331 320.8507  2.00553149 81200","nm":"NAVSTAR 73 (USA 260)"},{"n":40730,"c":2,"l1":"1 40730U 2015-033 26136.80957444 -0.00000025  00000-0  00000-0 0  9996","l2":"2 40730  54.0080 268.3797 0115005  30.0777 330.5547  2.00557775 79361","nm":"NAVSTAR 74 (USA 262)"},{"n":41019,"c":2,"l1":"1 41019U 2015-062 26136.86684735 -0.00000070  00000-0  00000-0 0  9995","l2":"2 41019  56.9392  32.0179 0111335 231.3553 127.6801  2.00566911 77200","nm":"NAVSTAR 75 (USA 265)"},{"n":41328,"c":2,"l1":"1 41328U 2016-007 26136.95576426  0.00000002  00000-0  00000-0 0  9999","l2":"2 41328  55.5056  90.6972 0096069 247.2726 111.6736  2.00553101 75216","nm":"NAVSTAR 76 (USA 266)"},{"n":43873,"c":2,"l1":"1 43873U 2018-109 26137.34343852  0.00000006  00000-0  00000-0 0  9994","l2":"2 43873  55.6642  93.4031 0037967 198.6881 334.6174  2.00560042 54453","nm":"NAVSTAR 77 (USA 289)"},{"n":44506,"c":2,"l1":"1 44506U 2019-056 26135.98166580 -0.00000060  00000-0  00000-0 0  9990","l2":"2 44506  55.6526 332.4228 0060472 197.4166 335.4017  2.00569160 49428","nm":"NAVSTAR 78 (USA 293)"},{"n":45854,"c":2,"l1":"1 45854U 2020-041 26136.09318970 -0.00000070  00000-0  00000-0 0  9999","l2":"2 45854  56.6497  30.1892 0062713 204.8386 348.2040  2.00559119 43390","nm":"NAVSTAR 79 (USA 304)"},{"n":46826,"c":2,"l1":"1 46826U 2020-078 26137.29931361  0.00000048  00000-0  00000-0 0  9991","l2":"2 46826  53.9840 212.0316 0072188 206.3251 112.9232  2.00564710 40882","nm":"NAVSTAR 80 (USA 309)"},{"n":48859,"c":2,"l1":"1 48859U 2021-054 26137.34480044 -0.00000068  00000-0  00000-0 0  9990","l2":"2 48859  55.1876 333.6992 0024566 229.1390 308.8618  2.00570739 36132","nm":"NAVSTAR 81 (USA 319)"},{"n":55268,"c":2,"l1":"1 55268U 2023-009 26137.54558707  0.00000079  00000-0  00000-0 0  9999","l2":"2 55268  55.1179 149.7232 0006025 315.1333  45.7366  2.00573501 24635","nm":"NAVSTAR 82 (USA 343)"},{"n":62339,"c":2,"l1":"1 62339U 2024-242 26136.41882242 -0.00000065  00000-0  00000-0 0  9991","l2":"2 62339  54.8633 335.4693 0017136   3.3978 346.4178  2.00570725 10614","nm":"NAVSTAR 83 (USA 440)"},{"n":64202,"c":2,"l1":"1 64202U 2025-116 26137.42204616 -0.00000073  00000-0  00000-0 0  9997","l2":"2 64202  55.2167  32.3689 0008620 335.0993 201.3412  2.00577774  7257","nm":"NAVSTAR 84 (USA 545)"},{"n":67588,"c":2,"l1":"1 67588U 2026-017 26137.28655213 -0.00000001  00000-0  00000-0 0  9996","l2":"2 67588  55.0693  89.9950 0022882 255.7977 103.9106  2.00571676430997","nm":"NAVSTAR 85 (USA 581)"}